[{"OBJECT_NAME":"NOAA 18","OBJECT_ID":"2005-018A","EPOCH":"2026-03-10T11:05:07.041984","MEAN_MOTION":14.13711078,"ECCENTRICITY":0.0015271,"INCLINATION":98.8155,"RA_OF_ASC_NODE":150.5583,"ARG_OF_PERICENTER":73.4348,"MEAN_ANOMALY":286.85,"EPHEMERIS_TYPE":0,"CLASSIFICATION_TYPE":"U","NORAD_CAT_ID":28654,"ELEMENT_SET_NO":999,"REV_AT_EPOCH":7236,"BSTAR":5.4599e-5,"MEAN_MOTION_DOT":6.0e-7,"MEAN_MOTION_DDOT":0},{"OBJECT_NAME":"NOAA 19","OBJECT_ID":"2009-005A","EPOCH":"2026-03-10T19:07:53.688288","MEAN_MOTION":14.13456962,"ECCENTRICITY":0.0012853,"INCLINATION":98.9605,"RA_OF_ASC_NODE":140.57,"ARG_OF_PERICENTER":311.3735,"MEAN_ANOMALY":48.6331,"EPHEMERIS_TYPE":0,"CLASSIFICATION_TYPE":"U","NORAD_CAT_ID":33591,"ELEMENT_SET_NO":999,"REV_AT_EPOCH":88058,"BSTAR":4.1328e-5,"MEAN_MOTION_DOT":3.3e-7,"MEAN_MOTION_DDOT":0},{"OBJECT_NAME":"SUOMI NPP","OBJECT_ID":"2011-061A","EPOCH":"2026-03-10T19:12:43.886016","MEAN_MOTION":14.19544001,"ECCENTRICITY":5.04e-5,"INCLINATION":98.7869,"RA_OF_ASC_NODE":11.3944,"ARG_OF_PERICENTER":221.709,"MEAN_ANOMALY":138.4048,"EPHEMERIS_TYPE":0,"CLASSIFICATION_TYPE":"U","NORAD_CAT_ID":37849,"ELEMENT_SET_NO":999,"REV_AT_EPOCH":74448,"BSTAR":8.6145e-5,"MEAN_MOTION_DOT":1.37e-6,"MEAN_MOTION_DDOT":0},{"OBJECT_NAME":"NOAA 20 (JPSS-1)","OBJECT_ID":"2017-073A","EPOCH":"2026-03-10T19:33:52.212960","MEAN_MOTION":14.19536474,"ECCENTRICITY":0.0001269,"INCLINATION":98.7691,"RA_OF_ASC_NODE":10.1912,"ARG_OF_PERICENTER":136.4269,"MEAN_ANOMALY":223.7008,"EPHEMERIS_TYPE":0,"CLASSIFICATION_TYPE":"U","NORAD_CAT_ID":43013,"ELEMENT_SET_NO":999,"REV_AT_EPOCH":43051,"BSTAR":7.4875e-5,"MEAN_MOTION_DOT":1.14e-6,"MEAN_MOTION_DDOT":0}]
