NOAA 18                 
1 28654U 05018A   26069.46188706  .00000060  00000+0  54599-4 0  9993
2 28654  98.8155 150.5583 0015271  73.4348 286.8500 14.13711078 72365
NOAA 19                 
1 33591U 09005A   26069.79714917  .00000033  00000+0  41328-4 0  9990
2 33591  98.9605 140.5700 0012853 311.3735  48.6331 14.13456962880584
SUOMI NPP               
1 37849U 11061A   26069.80050794  .00000137  00000+0  86145-4 0  9994
2 37849  98.7869  11.3944 0000504 221.7090 138.4048 14.19544001744486
NOAA 20 (JPSS-1)        
1 43013U 17073A   26069.81518765  .00000114  00000+0  74875-4 0  9993
2 43013  98.7691  10.1912 0001269 136.4269 223.7008 14.19536474430515
